CALSPHERE 1             
1 00900U 64063C   23311.80272615  .00001446  00000+0  15131-2 0  9996
2 00900  90.1982  50.7333 0024349 290.6740 197.2623 13.74593164940478
CALSPHERE 2             
1 00902U 64063E   23311.85034389  .00000075  00000+0  99963-4 0  9991
2 00902  90.2139  54.1803 0020319 110.4213  17.5327 13.52769484727960
LCS 1                   
1 01361U 65034C   23311.34262978  .00000015  00000+0  91879-3 0  9992
2 01361  32.1422 279.4072 0005480 267.3445  92.6425  9.89303966115521
TEMPSAT 1               
1 01512U 65065E   23311.48250571  .00000089  00000+0  16002-3 0  9991
2 01512  89.9461 215.1480 0071290  44.9384 130.4377 13.33493269833079
CALSPHERE 4A            
1 01520U 65065H   23312.49543722  .00000206  00000+0  38230-3 0  9993
2 01520  89.9562 129.0561 0067428 268.3758 114.3374 13.36005600836036
OPS 5712 (P/L 160)      
1 02826U 67053A   23312.11425654  .00008077  00000+0  18578-2 0  9990
2 02826  69.9263 171.7402 0006039 326.6603  33.4152 14.55697332927103
OPS 5712 (P/L 153)      
1 02874U 67053H   23311.55689764  .00000159  00000+0  15329-3 0  9999
2 02874  69.9753 356.7328 0008476 332.1344  27.9307 13.96521167874245
SURCAL 150B             
1 02909U 67053J   23312.02762449  .00017744  00000+0  27508-2 0  9992
2 02909  69.9421 133.4271 0002926 340.5906  19.5128 14.73190401938736
RIGIDSPHERE 2 (LCS 4)   
1 05398U 71067E   23311.53253767  .00001926  00000+0  65298-3 0  9994
2 05398  87.6233 242.6020 0063172 146.1274 214.3984 14.35177589737105
COSMOS 2493 (SKRL-756 1)
1 39490U 13078A   23312.47951799  .00005674  00000+0  55188-3 0  9997
2 39490  82.4140 105.4066 0015404 200.3563 159.7045 14.92320923535853
COSMOS 2494 (SKRL-756 2)
1 39491U 13078B   23312.46464810  .00006573  00000+0  61179-3 0  9996
2 39491  82.4142  98.0120 0020156 172.7210 187.4308 14.94014801536246
